[{"OBJECT_NAME":"STARLINK-30453","OBJECT_ID":"2023-146V","EPOCH":"2026-03-09T00:00:04.000320","MEAN_MOTION":15.26718338,"ECCENTRICITY":0.00017876,"INCLINATION":42.9996,"RA_OF_ASC_NODE":314.8413,"ARG_OF_PERICENTER":279.4555,"MEAN_ANOMALY":272.4079,"EPHEMERIS_TYPE":0,"CLASSIFICATION_TYPE":"U","NORAD_CAT_ID":57910,"ELEMENT_SET_NO":999,"REV_AT_EPOCH":574,"BSTAR":0.0010803851,"MEAN_MOTION_DOT":0.00028815,"MEAN_MOTION_DDOT":0},{"OBJECT_NAME":"OBJECT B","OBJECT_ID":"2024-205B","EPOCH":"2026-03-09T23:46:05.115936","MEAN_MOTION":15.28158697,"ECCENTRICITY":0.00105957,"INCLINATION":97.4192,"RA_OF_ASC_NODE":146.9311,"ARG_OF_PERICENTER":34.0947,"MEAN_ANOMALY":326.0972,"EPHEMERIS_TYPE":0,"CLASSIFICATION_TYPE":"U","NORAD_CAT_ID":61895,"ELEMENT_SET_NO":999,"REV_AT_EPOCH":7352,"BSTAR":0.00054154807,"MEAN_MOTION_DOT":0.00014827,"MEAN_MOTION_DDOT":0}]
